{
  "tiles": [
    "http://192.168.10.44:8888/tileserver/data/default/{z}/{x}/{y}.pbf"
  ],
  "name": "OpenMapTiles",
  "format": "pbf",
  "basename": "russia.mbtiles",
  "id": "russia",
  "description": "A tileset showcasing all layers in OpenMapTiles. https://openmaptiles.org",
  "attribution": "<a href=\"https://www.openmaptiles.org/\" target=\"_blank\">&copy; OpenMapTiles</a> <a href=\"https://www.openstreetmap.org/copyright\" target=\"_blank\">&copy; OpenStreetMap contributors</a>",
  "version": "3.13.1",
  "type": "baselayer",
  "bounds": [-180, 35.61404, 180, 83.83133],
  "center": [0, 59.72268, 0],
  "minzoom": 0,
  "maxzoom": 14,
  "vector_layers": [
    {
      "id": "aerodrome_label",
      "fields": {
        "name_int": "String",
        "name:bs": "String",
        "name:sk": "String",
        "name:ka": "String",
        "name:nonlatin": "String",
        "name:sl": "String",
        "name:sr": "String",
        "name:kk": "String",
        "name:ca": "String",
        "name:sv": "String",
        "name:ko": "String",
        "name_de": "String",
        "name:cs": "String",
        "ele": "Number",
        "name:latin": "String",
        "name:ar": "String",
        "name:ja": "String",
        "name:az": "String",
        "name:nl": "String",
        "name:be": "String",
        "name:fi": "String",
        "name:ru": "String",
        "name:no": "String",
        "iata": "String",
        "name": "String",
        "name:fr": "String",
        "name:hy": "String",
        "name:uk": "String",
        "name:id": "String",
        "name:ja-Hira": "String",
        "name:el": "String",
        "name:it": "String",
        "name:en": "String",
        "name:is": "String",
        "name:eo": "String",
        "name:et": "String",
        "name:eu": "String",
        "class": "String",
        "name:zh": "String",
        "name:es": "String",
        "name:th": "String",
        "name:la": "String",
        "name:pl": "String",
        "name:he": "String",
        "name:tr": "String",
        "name:pt": "String",
        "name:hi": "String",
        "name:de": "String",
        "name:lt": "String",
        "ele_ft": "Number",
        "icao": "String",
        "name:hr": "String",
        "name:lv": "String",
        "name:hu": "String",
        "name_en": "String"
      },
      "minzoom": 8,
      "maxzoom": 14
    },
    {
      "id": "aeroway",
      "fields": { "ref": "String", "class": "String" },
      "minzoom": 10,
      "maxzoom": 14
    },
    {
      "id": "boundary",
      "fields": {
        "adm0_r": "String",
        "disputed": "Number",
        "admin_level": "Number",
        "disputed_name": "String",
        "adm0_l": "String",
        "maritime": "Number"
      },
      "minzoom": 0,
      "maxzoom": 14
    },
    {
      "id": "building",
      "fields": {
        "colour": "String",
        "render_height": "Number",
        "render_min_height": "Number",
        "hide_3d": "Boolean"
      },
      "minzoom": 13,
      "maxzoom": 14
    },
    {
      "id": "housenumber",
      "fields": { "housenumber": "String" },
      "minzoom": 14,
      "maxzoom": 14
    },
    {
      "id": "landcover",
      "fields": {
        "subclass": "String",
        "class": "String",
        "_numpoints": "Number"
      },
      "minzoom": 0,
      "maxzoom": 14
    },
    {
      "id": "landuse",
      "fields": { "class": "String" },
      "minzoom": 4,
      "maxzoom": 14
    },
    {
      "id": "mountain_peak",
      "fields": {
        "name_int": "String",
        "name:sk": "String",
        "name:ka": "String",
        "name:nonlatin": "String",
        "name:sl": "String",
        "name:sr": "String",
        "name:kk": "String",
        "name:ca": "String",
        "name:sv": "String",
        "name:ko": "String",
        "name_de": "String",
        "rank": "Number",
        "name:cs": "String",
        "name:latin": "String",
        "ele": "Number",
        "name:ar": "String",
        "name:ja": "String",
        "name:az": "String",
        "name:ro": "String",
        "name:nl": "String",
        "name:be": "String",
        "name:fi": "String",
        "name:ru": "String",
        "name:no": "String",
        "name:bg": "String",
        "name": "String",
        "name:fr": "String",
        "name:hy": "String",
        "name:uk": "String",
        "name:ja-Hira": "String",
        "name:ml": "String",
        "customary_ft": "Number",
        "name:el": "String",
        "name:it": "String",
        "name:en": "String",
        "name:eo": "String",
        "name:et": "String",
        "name:eu": "String",
        "class": "String",
        "name:zh": "String",
        "name:es": "String",
        "name:pl": "String",
        "name:he": "String",
        "name:tr": "String",
        "name:pt": "String",
        "name:de": "String",
        "name:lt": "String",
        "ele_ft": "Number",
        "name:hr": "String",
        "name:hu": "String",
        "name_en": "String"
      },
      "minzoom": 7,
      "maxzoom": 14
    },
    {
      "id": "park",
      "fields": {
        "name_int": "String",
        "name:sk": "String",
        "name:ka": "String",
        "name:uk": "String",
        "name:nonlatin": "String",
        "name:sr": "String",
        "name:ml": "String",
        "name:kk": "String",
        "name:ca": "String",
        "name:sv": "String",
        "name_de": "String",
        "name:it": "String",
        "name:en": "String",
        "name:eo": "String",
        "name:et": "String",
        "name:cs": "String",
        "class": "String",
        "name:zh": "String",
        "name:es": "String",
        "name:latin": "String",
        "name:ar": "String",
        "name:ja": "String",
        "name:pl": "String",
        "name:ro": "String",
        "name:da": "String",
        "name:tr": "String",
        "name:nl": "String",
        "name:fi": "String",
        "name:be": "String",
        "name:ru": "String",
        "name:pt": "String",
        "name:no": "String",
        "name:de": "String",
        "name:lt": "String",
        "name:bg": "String",
        "name": "String",
        "name:fr": "String",
        "name:lv": "String",
        "name:hr": "String",
        "name:hu": "String",
        "name_en": "String"
      },
      "minzoom": 4,
      "maxzoom": 14
    },
    {
      "id": "place",
      "fields": {
        "name:fy": "String",
        "name:oc": "String",
        "name_int": "String",
        "name:bs": "String",
        "capital": "Number",
        "name:sk": "String",
        "name:ka": "String",
        "name:nonlatin": "String",
        "name:ja-Latn": "String",
        "name:sl": "String",
        "name:ga": "String",
        "name:sr": "String",
        "name:kk": "String",
        "name:gd": "String",
        "name:sq": "String",
        "name:ca": "String",
        "name:kn": "String",
        "name:sv": "String",
        "name:ko": "String",
        "name_de": "String",
        "name:co": "String",
        "rank": "Number",
        "name:ku": "String",
        "name:cs": "String",
        "name:ta": "String",
        "name:latin": "String",
        "name:ar": "String",
        "name:ja": "String",
        "name:rm": "String",
        "name:az": "String",
        "name:ro": "String",
        "name:nl": "String",
        "name:be": "String",
        "name:fi": "String",
        "name:ru": "String",
        "name:no": "String",
        "name:bg": "String",
        "name": "String",
        "name:fr": "String",
        "name:br": "String",
        "name:hy": "String",
        "name:uk": "String",
        "name:id": "String",
        "name:ja-Hira": "String",
        "name:ml": "String",
        "name:mk": "String",
        "name:mt": "String",
        "name:el": "String",
        "name:sr-Latn": "String",
        "name:it": "String",
        "name:am": "String",
        "name:en": "String",
        "name:is": "String",
        "name:eo": "String",
        "name:et": "String",
        "name:eu": "String",
        "class": "String",
        "iso_a2": "String",
        "name:zh": "String",
        "name:es": "String",
        "name:th": "String",
        "name:te": "String",
        "name:la": "String",
        "name:lb": "String",
        "name:cy": "String",
        "name:pl": "String",
        "name:da": "String",
        "name:he": "String",
        "name:tr": "String",
        "name:pt": "String",
        "name:hi": "String",
        "name:de": "String",
        "name:lt": "String",
        "name:lv": "String",
        "name:hr": "String",
        "name:hu": "String",
        "name_en": "String"
      },
      "minzoom": 0,
      "maxzoom": 14
    },
    {
      "id": "poi",
      "fields": {
        "name:fy": "String",
        "name:oc": "String",
        "name_int": "String",
        "name:bs": "String",
        "name:sk": "String",
        "name:ka": "String",
        "name:nonlatin": "String",
        "name:sl": "String",
        "name:ga": "String",
        "name:sr": "String",
        "name:kk": "String",
        "name:gd": "String",
        "name:sq": "String",
        "name:ca": "String",
        "name:kn": "String",
        "name:sv": "String",
        "name:ko": "String",
        "name_de": "String",
        "name:ku": "String",
        "name:cs": "String",
        "name:ta": "String",
        "name:latin": "String",
        "name:ko-Latn": "String",
        "name:ar": "String",
        "name:ja": "String",
        "level": "Number",
        "name:rm": "String",
        "name:az": "String",
        "name:ro": "String",
        "name:nl": "String",
        "name:be": "String",
        "name:fi": "String",
        "name:ru": "String",
        "name:no": "String",
        "name:bg": "String",
        "name": "String",
        "indoor": "Number",
        "name:fr": "String",
        "name:ja_rm": "String",
        "name:br": "String",
        "name:hy": "String",
        "name:uk": "String",
        "name:id": "String",
        "name:ja-Hira": "String",
        "name:ml": "String",
        "layer": "Number",
        "name:mk": "String",
        "name:el": "String",
        "name:it": "String",
        "name:am": "String",
        "name:en": "String",
        "name:is": "String",
        "name:eo": "String",
        "name:et": "String",
        "name:eu": "String",
        "class": "String",
        "name:zh": "String",
        "name:es": "String",
        "name:th": "String",
        "name:te": "String",
        "name:la": "String",
        "name:cy": "String",
        "name:lb": "String",
        "name:pl": "String",
        "name:da": "String",
        "name:he": "String",
        "name:tr": "String",
        "name:pt": "String",
        "name:hi": "String",
        "name:de": "String",
        "name:lt": "String",
        "subclass": "String",
        "name:hr": "String",
        "name:lv": "String",
        "name:hu": "String",
        "name_en": "String"
      },
      "minzoom": 12,
      "maxzoom": 14
    },
    {
      "id": "transportation",
      "fields": {
        "brunnel": "String",
        "access": "String",
        "bicycle": "String",
        "surface": "String",
        "level": "Number",
        "ramp": "Number",
        "mtb_scale": "String",
        "toll": "Number",
        "layer": "Number",
        "oneway": "Number",
        "horse": "String",
        "service": "String",
        "subclass": "String",
        "indoor": "Number",
        "class": "String",
        "foot": "String"
      },
      "minzoom": 4,
      "maxzoom": 14
    },
    {
      "id": "transportation_name",
      "fields": {
        "name_int": "String",
        "level": "Number",
        "name:nonlatin": "String",
        "route_5": "String",
        "route_4": "String",
        "route_3": "String",
        "route_2": "String",
        "route_1": "String",
        "layer": "Number",
        "network": "String",
        "ref": "String",
        "name_de": "String",
        "name": "String",
        "ref_length": "Number",
        "subclass": "String",
        "indoor": "Number",
        "class": "String",
        "name:latin": "String",
        "name_en": "String"
      },
      "minzoom": 6,
      "maxzoom": 14
    },
    {
      "id": "water",
      "fields": {
        "brunnel": "String",
        "intermittent": "Number",
        "id": "Number",
        "class": "String"
      },
      "minzoom": 0,
      "maxzoom": 14
    },
    {
      "id": "water_name",
      "fields": {
        "name:fy": "String",
        "name:oc": "String",
        "name_int": "String",
        "name:bs": "String",
        "name:sk": "String",
        "name:nonlatin": "String",
        "name:ka": "String",
        "intermittent": "Number",
        "name:sl": "String",
        "name:ga": "String",
        "name:sr": "String",
        "name:kk": "String",
        "name:sq": "String",
        "name:ca": "String",
        "name:kn": "String",
        "name:sv": "String",
        "name:ko": "String",
        "name_de": "String",
        "name:ku": "String",
        "name:cs": "String",
        "name:ta": "String",
        "name:latin": "String",
        "name:ar": "String",
        "name:ja": "String",
        "name:az": "String",
        "name:ro": "String",
        "name:nl": "String",
        "name:fi": "String",
        "name:ru": "String",
        "name:be": "String",
        "name:no": "String",
        "name:bg": "String",
        "name": "String",
        "name:fr": "String",
        "name:br": "String",
        "name:hy": "String",
        "name:uk": "String",
        "name:id": "String",
        "name:ja-Hira": "String",
        "name:ml": "String",
        "name:mk": "String",
        "name:el": "String",
        "name:it": "String",
        "name:am": "String",
        "name:en": "String",
        "name:is": "String",
        "name:eo": "String",
        "name:et": "String",
        "name:eu": "String",
        "class": "String",
        "name:zh": "String",
        "name:es": "String",
        "name:th": "String",
        "name:te": "String",
        "name:la": "String",
        "name:lb": "String",
        "name:cy": "String",
        "name:pl": "String",
        "name:da": "String",
        "name:he": "String",
        "name:tr": "String",
        "name:pt": "String",
        "name:hi": "String",
        "name:de": "String",
        "name:lt": "String",
        "name:hr": "String",
        "name:lv": "String",
        "name:hu": "String",
        "name_en": "String"
      },
      "minzoom": 1,
      "maxzoom": 14
    },
    {
      "id": "waterway",
      "fields": {
        "name:fy": "String",
        "name_int": "String",
        "name:oc": "String",
        "name:bs": "String",
        "name:sk": "String",
        "name:nonlatin": "String",
        "name:ka": "String",
        "intermittent": "Number",
        "name:sl": "String",
        "name:ga": "String",
        "name:sr": "String",
        "name:kk": "String",
        "name:ca": "String",
        "name:sq": "String",
        "name:sv": "String",
        "name:kn": "String",
        "name:ko": "String",
        "name_de": "String",
        "name:ku": "String",
        "name:cs": "String",
        "name:ta": "String",
        "name:latin": "String",
        "name:ar": "String",
        "name:ja": "String",
        "name:rm": "String",
        "name:az": "String",
        "name:ro": "String",
        "name:nl": "String",
        "name:ru": "String",
        "name:be": "String",
        "name:fi": "String",
        "name:no": "String",
        "name:bg": "String",
        "name": "String",
        "name:fr": "String",
        "name:br": "String",
        "name:hy": "String",
        "brunnel": "String",
        "name:uk": "String",
        "name:id": "String",
        "name:ml": "String",
        "name:mk": "String",
        "name:el": "String",
        "name:it": "String",
        "name:am": "String",
        "name:en": "String",
        "name:eo": "String",
        "name:is": "String",
        "name:et": "String",
        "name:eu": "String",
        "class": "String",
        "name:zh": "String",
        "name:es": "String",
        "name:th": "String",
        "name:te": "String",
        "name:la": "String",
        "_relid": "Number",
        "name:cy": "String",
        "name:lb": "String",
        "name:pl": "String",
        "name:da": "String",
        "name:he": "String",
        "name:tr": "String",
        "name:pt": "String",
        "name:de": "String",
        "name:hi": "String",
        "name:lt": "String",
        "name:hr": "String",
        "name:lv": "String",
        "name:hu": "String",
        "name_en": "String"
      },
      "minzoom": 3,
      "maxzoom": 14
    }
  ],
  "tilejson": "2.0.0"
}
